*******************************************************************************
Ephemeris / WWW_USER Mon Mar 10 07:23:17 2025 Pasadena, USA      / Horizons    
*******************************************************************************
Target body name: (2018 PC20)                     {source: JPL#4}
Center body name: Earth (399)                     {source: DE441}
Center-site name: Mauna Kea
*******************************************************************************
Start time      : A.D. 2018-Aug-27 04:51:00.0000 UT      
Stop  time      : A.D. 2018-Aug-27 15:56:00.0000 UT      
Step-size       : 1 minutes
*******************************************************************************
Target pole/equ : undefined
Target radii    : undefined                                                    
Center geodetic : 204.5278, 19.8260847, 4.21024   {E-lon(deg),Lat(deg),Alt(km)}
Center cylindric: 204.5278, 6006.35451, 2151.0229 {E-lon(deg),Dxy(km),Dz(km)}
Center pole/equ : ITRF93                          {East-longitude positive}
Center radii    : 6378.137, 6378.137, 6356.752 km {Equator_a, b, pole_c}       
Target primary  : Sun
Vis. interferer : MOON (R_eq= 1737.400) km        {source: DE441}
Rel. light bend : Sun                             {source: DE441}
Rel. lght bnd GM: 1.3271E+11 km^3/s^2                                          
Small-body perts: Yes                             {source: SB441-N16}
Atmos refraction: NO (AIRLESS)
RA format       : HMS
Time format     : CAL 
Calendar mode   : Mixed Julian/Gregorian
RTS-only print  : NO       
EOP file        : eop.250307.p250603                                           
EOP coverage    : DATA-BASED 1962-JAN-20 TO 2025-MAR-07. PREDICTS-> 2025-JUN-02
Units conversion: 1 au= 149597870.700 km, c= 299792.458 km/s, 1 day= 86400.0 s 
Table cut-offs 1: Elevation (-90.0deg=NO ),Airmass (>38.000=NO), Daylight (YES)
Table cut-offs 2: Solar elongation (  0.0,180.0=NO ),Local Hour Angle( 0.0=NO )
Table cut-offs 3: RA/DEC angular rate (     0.0=NO )                           
*******************************************************************************
Initial IAU76/J2000 heliocentric ecliptic osculating elements (au, days, deg.):
  EPOCH=  2458343.5 ! 2018-Aug-13.00 (TDB)         Residual RMS= .24519        
   EC= .404352607301711    QR= 1.018354806317198   TP= 2458318.6524357731      
   OM= 139.299704166656    W=  153.5303944744985   IN= 8.986086735514593       
  Equivalent ICRF heliocentric cartesian coordinates (au, au/d):
   X= 8.116079301925467E-01  Y=-6.140581064636024E-01  Z=-2.698058679324596E-01
  VX= 1.436448164656351E-02 VY= 1.329561442287599E-02 VZ= 2.429594529488231E-03
Asteroid physical parameters (km, seconds, rotational period in hours):        
   GM= n.a.                RAD= n.a.               ROTPER= n.a.                
   H= 25.2                 G= .150                 B-V= n.a.                   
                           ALBEDO= n.a.            STYP= n.a.                  
*******************************************************************************
 Date__(UT)__HR:MN     R.A._________(ICRF)_________DEC
******************************************************
$$SOE
 2018-Aug-27 15:06 Am  00 00 57.952192 -29 44 54.13829
 2018-Aug-27 15:07 Am  00 00 58.033166 -29 44 54.68154
 2018-Aug-27 15:08 Am  00 00 58.114218 -29 44 55.22422
 2018-Aug-27 15:09 Am  00 00 58.195349 -29 44 55.76632
 2018-Aug-27 15:10 Am  00 00 58.276557 -29 44 56.30786
 2018-Aug-27 15:11 Am  00 00 58.357845 -29 44 56.84883
 2018-Aug-27 15:12 Am  00 00 58.439211 -29 44 57.38923
 2018-Aug-27 15:13 Am  00 00 58.520657 -29 44 57.92907
 2018-Aug-27 15:14 Am  00 00 58.602183 -29 44 58.46835
 2018-Aug-27 15:15 Am  00 00 58.683789 -29 44 59.00708
 2018-Aug-27 15:16 Am  00 00 58.765475 -29 44 59.54525
 2018-Aug-27 15:17 Nm  00 00 58.847242 -29 45 00.08287
 2018-Aug-27 15:18 Nm  00 00 58.929090 -29 45 00.61993
 2018-Aug-27 15:19 Nm  00 00 59.011020 -29 45 01.15645
 2018-Aug-27 15:20 Nm  00 00 59.093031 -29 45 01.69243
 2018-Aug-27 15:21 Nm  00 00 59.175125 -29 45 02.22787
 2018-Aug-27 15:22 Nm  00 00 59.257301 -29 45 02.76276
 2018-Aug-27 15:23 Nm  00 00 59.339559 -29 45 03.29712
 2018-Aug-27 15:24 Nm  00 00 59.421901 -29 45 03.83094
 2018-Aug-27 15:25 Nm  00 00 59.504326 -29 45 04.36424
 2018-Aug-27 15:26 Nm  00 00 59.586834 -29 45 04.89700
 2018-Aug-27 15:27 Nm  00 00 59.669427 -29 45 05.42924
 2018-Aug-27 15:28 Nm  00 00 59.752103 -29 45 05.96095
 2018-Aug-27 15:29 Nm  00 00 59.834865 -29 45 06.49214
 2018-Aug-27 15:30 Nm  00 00 59.917711 -29 45 07.02281
 2018-Aug-27 15:31 Nm  00 01 00.000643 -29 45 07.55297
 2018-Aug-27 15:32 Nm  00 01 00.083659 -29 45 08.08261
 2018-Aug-27 15:33 Nm  00 01 00.166762 -29 45 08.61175
 2018-Aug-27 15:34 Nm  00 01 00.249951 -29 45 09.14037
 2018-Aug-27 15:35 Nm  00 01 00.333226 -29 45 09.66849
 2018-Aug-27 15:36 Nm  00 01 00.416588 -29 45 10.19611
 2018-Aug-27 15:37 Nm  00 01 00.500037 -29 45 10.72322
 2018-Aug-27 15:38 Nm  00 01 00.583573 -29 45 11.24984
 2018-Aug-27 15:39 Nm  00 01 00.667196 -29 45 11.77597
 2018-Aug-27 15:40 Nm  00 01 00.750908 -29 45 12.30160
 2018-Aug-27 15:41 Nm  00 01 00.834708 -29 45 12.82675
 2018-Aug-27 15:42 Nm  00 01 00.918595 -29 45 13.35140
 2018-Aug-27 15:43 Cm  00 01 01.002572 -29 45 13.87558
 2018-Aug-27 15:44 Cm  00 01 01.086638 -29 45 14.39927
 2018-Aug-27 15:45 Cm  00 01 01.170793 -29 45 14.92248
 2018-Aug-27 15:46 Cm  00 01 01.255037 -29 45 15.44522
 2018-Aug-27 15:47 Cm  00 01 01.339371 -29 45 15.96749
 2018-Aug-27 15:48 Cm  00 01 01.423795 -29 45 16.48928
 2018-Aug-27 15:49 Cm  00 01 01.508310 -29 45 17.01061
 2018-Aug-27 15:50 Cm  00 01 01.592915 -29 45 17.53147
 2018-Aug-27 15:51 Cm  00 01 01.677611 -29 45 18.05188
 2018-Aug-27 15:52 Cm  00 01 01.762398 -29 45 18.57182
 2018-Aug-27 15:53 Cm  00 01 01.847277 -29 45 19.09131
 2018-Aug-27 15:54 Cm  00 01 01.932247 -29 45 19.61034
 2018-Aug-27 15:55 Cm  00 01 02.017309 -29 45 20.12893
 2018-Aug-27 15:56 Cm  00 01 02.102463 -29 45 20.64706
